[{"OBJECT_NAME":"HULIANWANG DIGUI-01","OBJECT_ID":"2024-240A","EPOCH":"2026-03-03T14:36:20.781504","MEAN_MOTION":13.24420413,"ECCENTRICITY":0.00019322,"INCLINATION":86.5027,"RA_OF_ASC_NODE":18.8315,"ARG_OF_PERICENTER":86.4341,"MEAN_ANOMALY":273.7014,"EPHEMERIS_TYPE":0,"CLASSIFICATION_TYPE":"U","NORAD_CAT_ID":62323,"ELEMENT_SET_NO":999,"REV_AT_EPOCH":5866,"BSTAR":7.9370317e-5,"MEAN_MOTION_DOT":4.9e-7,"MEAN_MOTION_DDOT":0},{"OBJECT_NAME":"HULIANWANG DIGUI-02","OBJECT_ID":"2024-240B","EPOCH":"2026-03-03T14:47:05.601120","MEAN_MOTION":13.24422042,"ECCENTRICITY":0.00018514,"INCLINATION":86.5056,"RA_OF_ASC_NODE":18.9585,"ARG_OF_PERICENTER":90.0098,"MEAN_ANOMALY":270.1248,"EPHEMERIS_TYPE":0,"CLASSIFICATION_TYPE":"U","NORAD_CAT_ID":62324,"ELEMENT_SET_NO":999,"REV_AT_EPOCH":5867,"BSTAR":6.3753497e-5,"MEAN_MOTION_DOT":4.2e-7,"MEAN_MOTION_DDOT":0},{"OBJECT_NAME":"HULIANWANG DIGUI-03","OBJECT_ID":"2024-240C","EPOCH":"2026-03-03T14:25:18.147936","MEAN_MOTION":13.24421991,"ECCENTRICITY":0.00020137,"INCLINATION":86.5009,"RA_OF_ASC_NODE":18.7539,"ARG_OF_PERICENTER":85.276,"MEAN_ANOMALY":274.8604,"EPHEMERIS_TYPE":0,"CLASSIFICATION_TYPE":"U","NORAD_CAT_ID":62325,"ELEMENT_SET_NO":999,"REV_AT_EPOCH":5866,"BSTAR":0.00010838975,"MEAN_MOTION_DOT":6.1e-7,"MEAN_MOTION_DDOT":0},{"OBJECT_NAME":"HULIANWANG DIGUI-04","OBJECT_ID":"2024-240D","EPOCH":"2026-03-03T14:14:28.248864","MEAN_MOTION":13.24421661,"ECCENTRICITY":0.00020503,"INCLINATION":86.5018,"RA_OF_ASC_NODE":18.7879,"ARG_OF_PERICENTER":86.0467,"MEAN_ANOMALY":274.0901,"EPHEMERIS_TYPE":0,"CLASSIFICATION_TYPE":"U","NORAD_CAT_ID":62326,"ELEMENT_SET_NO":999,"REV_AT_EPOCH":5866,"BSTAR":0.00011898215,"MEAN_MOTION_DOT":6.6e-7,"MEAN_MOTION_DDOT":0},{"OBJECT_NAME":"HULIANWANG DIGUI-05","OBJECT_ID":"2024-240E","EPOCH":"2026-03-03T14:03:39.606912","MEAN_MOTION":13.24420857,"ECCENTRICITY":0.00020806,"INCLINATION":86.507,"RA_OF_ASC_NODE":19.0091,"ARG_OF_PERICENTER":85.1227,"MEAN_ANOMALY":275.0144,"EPHEMERIS_TYPE":0,"CLASSIFICATION_TYPE":"U","NORAD_CAT_ID":62327,"ELEMENT_SET_NO":999,"REV_AT_EPOCH":5866,"BSTAR":0.0001026879,"MEAN_MOTION_DOT":5.9e-7,"MEAN_MOTION_DDOT":0},{"OBJECT_NAME":"HULIANWANG DIGUI-06","OBJECT_ID":"2024-240F","EPOCH":"2026-03-03T15:30:33.009696","MEAN_MOTION":13.244228,"ECCENTRICITY":0.00020148,"INCLINATION":86.5008,"RA_OF_ASC_NODE":18.7086,"ARG_OF_PERICENTER":89.6449,"MEAN_ANOMALY":270.4916,"EPHEMERIS_TYPE":0,"CLASSIFICATION_TYPE":"U","NORAD_CAT_ID":62328,"ELEMENT_SET_NO":999,"REV_AT_EPOCH":5867,"BSTAR":6.8184444e-5,"MEAN_MOTION_DOT":4.4e-7,"MEAN_MOTION_DDOT":0},{"OBJECT_NAME":"HULIANWANG DIGUI-07","OBJECT_ID":"2024-240G","EPOCH":"2026-03-03T15:19:48.447552","MEAN_MOTION":13.24420931,"ECCENTRICITY":0.00020003,"INCLINATION":86.4979,"RA_OF_ASC_NODE":18.5798,"ARG_OF_PERICENTER":87.8745,"MEAN_ANOMALY":272.2618,"EPHEMERIS_TYPE":0,"CLASSIFICATION_TYPE":"U","NORAD_CAT_ID":62329,"ELEMENT_SET_NO":999,"REV_AT_EPOCH":5867,"BSTAR":5.3290297e-5,"MEAN_MOTION_DOT":3.8e-7,"MEAN_MOTION_DDOT":0},{"OBJECT_NAME":"HULIANWANG DIGUI-08","OBJECT_ID":"2024-240H","EPOCH":"2026-03-03T13:52:48.298656","MEAN_MOTION":13.24420793,"ECCENTRICITY":0.00021132,"INCLINATION":86.5061,"RA_OF_ASC_NODE":18.9692,"ARG_OF_PERICENTER":86.5086,"MEAN_ANOMALY":273.629,"EPHEMERIS_TYPE":0,"CLASSIFICATION_TYPE":"U","NORAD_CAT_ID":62330,"ELEMENT_SET_NO":999,"REV_AT_EPOCH":5866,"BSTAR":9.3422658e-5,"MEAN_MOTION_DOT":5.5e-7,"MEAN_MOTION_DDOT":0},{"OBJECT_NAME":"HULIANWANG DIGUI-09","OBJECT_ID":"2024-240J","EPOCH":"2026-03-03T15:08:49.656192","MEAN_MOTION":13.24422152,"ECCENTRICITY":0.00019539,"INCLINATION":86.5028,"RA_OF_ASC_NODE":18.8472,"ARG_OF_PERICENTER":89.778,"MEAN_ANOMALY":270.3578,"EPHEMERIS_TYPE":0,"CLASSIFICATION_TYPE":"U","NORAD_CAT_ID":62331,"ELEMENT_SET_NO":999,"REV_AT_EPOCH":5866,"BSTAR":1.8631769e-5,"MEAN_MOTION_DOT":2.3e-7,"MEAN_MOTION_DDOT":0},{"OBJECT_NAME":"HULIANWANG DIGUI-10","OBJECT_ID":"2024-240K","EPOCH":"2026-03-03T14:58:00.351552","MEAN_MOTION":13.24421548,"ECCENTRICITY":0.00019452,"INCLINATION":86.5058,"RA_OF_ASC_NODE":18.9717,"ARG_OF_PERICENTER":91.8135,"MEAN_ANOMALY":268.3222,"EPHEMERIS_TYPE":0,"CLASSIFICATION_TYPE":"U","NORAD_CAT_ID":62332,"ELEMENT_SET_NO":999,"REV_AT_EPOCH":5866,"BSTAR":1.6024476e-5,"MEAN_MOTION_DOT":2.2e-7,"MEAN_MOTION_DDOT":0},{"OBJECT_NAME":"HULIANWANG DIGUI-11","OBJECT_ID":"2025-030A","EPOCH":"2026-03-03T14:35:48.612192","MEAN_MOTION":13.29337639,"ECCENTRICITY":7.545e-5,"INCLINATION":49.9993,"RA_OF_ASC_NODE":254.5111,"ARG_OF_PERICENTER":162.8634,"MEAN_ANOMALY":197.2264,"EPHEMERIS_TYPE":0,"CLASSIFICATION_TYPE":"U","NORAD_CAT_ID":62971,"ELEMENT_SET_NO":999,"REV_AT_EPOCH":5181,"BSTAR":7.5948517e-5,"MEAN_MOTION_DOT":-8.9e-7,"MEAN_MOTION_DDOT":0},{"OBJECT_NAME":"HULIANWANG DIGUI-12","OBJECT_ID":"2025-030B","EPOCH":"2026-03-03T14:47:40.836768","MEAN_MOTION":13.29339812,"ECCENTRICITY":8.755e-5,"INCLINATION":50.0009,"RA_OF_ASC_NODE":254.6004,"ARG_OF_PERICENTER":156.8087,"MEAN_ANOMALY":203.2825,"EPHEMERIS_TYPE":0,"CLASSIFICATION_TYPE":"U","NORAD_CAT_ID":62972,"ELEMENT_SET_NO":999,"REV_AT_EPOCH":5181,"BSTAR":6.8861727e-5,"MEAN_MOTION_DOT":-9.2e-7,"MEAN_MOTION_DDOT":0},{"OBJECT_NAME":"HULIANWANG DIGUI-13","OBJECT_ID":"2025-030C","EPOCH":"2026-03-03T12:35:28.669632","MEAN_MOTION":13.29337708,"ECCENTRICITY":6.979e-5,"INCLINATION":50.0012,"RA_OF_ASC_NODE":254.7952,"ARG_OF_PERICENTER":148.0294,"MEAN_ANOMALY":212.0621,"EPHEMERIS_TYPE":0,"CLASSIFICATION_TYPE":"U","NORAD_CAT_ID":62973,"ELEMENT_SET_NO":999,"REV_AT_EPOCH":5180,"BSTAR":5.6021639e-5,"MEAN_MOTION_DOT":-9.8e-7,"MEAN_MOTION_DDOT":0},{"OBJECT_NAME":"HULIANWANG DIGUI-14","OBJECT_ID":"2025-030D","EPOCH":"2026-03-03T13:47:44.009088","MEAN_MOTION":13.29337546,"ECCENTRICITY":7.998e-5,"INCLINATION":50.0017,"RA_OF_ASC_NODE":254.4134,"ARG_OF_PERICENTER":148.6053,"MEAN_ANOMALY":211.4867,"EPHEMERIS_TYPE":0,"CLASSIFICATION_TYPE":"U","NORAD_CAT_ID":62974,"ELEMENT_SET_NO":999,"REV_AT_EPOCH":5181,"BSTAR":8.6904594e-5,"MEAN_MOTION_DOT":-8.4e-7,"MEAN_MOTION_DDOT":0},{"OBJECT_NAME":"HULIANWANG DIGUI-15","OBJECT_ID":"2025-030E","EPOCH":"2026-03-03T14:11:45.434976","MEAN_MOTION":13.29337692,"ECCENTRICITY":6.88e-5,"INCLINATION":50.0013,"RA_OF_ASC_NODE":254.4849,"ARG_OF_PERICENTER":155.6118,"MEAN_ANOMALY":204.4787,"EPHEMERIS_TYPE":0,"CLASSIFICATION_TYPE":"U","NORAD_CAT_ID":62975,"ELEMENT_SET_NO":999,"REV_AT_EPOCH":5181,"BSTAR":7.1136379e-5,"MEAN_MOTION_DOT":-9.1e-7,"MEAN_MOTION_DDOT":0},{"OBJECT_NAME":"HULIANWANG DIGUI-16","OBJECT_ID":"2025-030F","EPOCH":"2026-03-03T13:35:38.001120","MEAN_MOTION":13.29338283,"ECCENTRICITY":8.0e-5,"INCLINATION":50.0034,"RA_OF_ASC_NODE":254.4223,"ARG_OF_PERICENTER":145.8743,"MEAN_ANOMALY":214.2181,"EPHEMERIS_TYPE":0,"CLASSIFICATION_TYPE":"U","NORAD_CAT_ID":62976,"ELEMENT_SET_NO":999,"REV_AT_EPOCH":5181,"BSTAR":8.0135395e-5,"MEAN_MOTION_DOT":-8.7e-7,"MEAN_MOTION_DDOT":0}]
