HULIANWANG DIGUI-01     
1 62323U 24240A   26062.60857386  .00000049  00000+0  79370-4 0  9999
2 62323  86.5027  18.8315 0001932  86.4341 273.7014 13.24420413 58666
HULIANWANG DIGUI-02     
1 62324U 24240B   26062.61603705  .00000042  00000+0  63753-4 0  9996
2 62324  86.5056  18.9585 0001851  90.0098 270.1248 13.24422042 58670
HULIANWANG DIGUI-03     
1 62325U 24240C   26062.60090449  .00000061  00000+0  10839-3 0  9998
2 62325  86.5009  18.7539 0002013  85.2760 274.8604 13.24421991 58667
HULIANWANG DIGUI-04     
1 62326U 24240D   26062.59338251  .00000066  00000+0  11898-3 0  9994
2 62326  86.5018  18.7879 0002050  86.0467 274.0901 13.24421661 58665
HULIANWANG DIGUI-05     
1 62327U 24240E   26062.58587508  .00000059  00000+0  10269-3 0  9998
2 62327  86.5070  19.0091 0002080  85.1227 275.0144 13.24420857 58667
HULIANWANG DIGUI-06     
1 62328U 24240F   26062.64621539  .00000044  00000+0  68184-4 0  9993
2 62328  86.5008  18.7086 0002014  89.6449 270.4916 13.24422800 58678
HULIANWANG DIGUI-07     
1 62329U 24240G   26062.63875518  .00000038  00000+0  53290-4 0  9996
2 62329  86.4979  18.5798 0002000  87.8745 272.2618 13.24420931 58679
HULIANWANG DIGUI-08     
1 62330U 24240H   26062.57833679  .00000055  00000+0  93423-4 0  9994
2 62330  86.5061  18.9692 0002113  86.5086 273.6290 13.24420793 58666
HULIANWANG DIGUI-09     
1 62331U 24240J   26062.63113028  .00000023  00000+0  18632-4 0  9995
2 62331  86.5028  18.8472 0001953  89.7780 270.3578 13.24422152 58666
HULIANWANG DIGUI-10     
1 62332U 24240K   26062.62361518  .00000022  00000+0  16024-4 0  9996
2 62332  86.5058  18.9717 0001945  91.8135 268.3222 13.24421548 58663
HULIANWANG DIGUI-11     
1 62971U 25030A   26062.60820153 -.00000089  00000+0  75949-4 0  9991
2 62971  49.9993 254.5111 0000754 162.8634 197.2264 13.29337639 51817
HULIANWANG DIGUI-12     
1 62972U 25030B   26062.61644487 -.00000092  00000+0  68862-4 0  9997
2 62972  50.0009 254.6004 0000875 156.8087 203.2825 13.29339812 51816
HULIANWANG DIGUI-13     
1 62973U 25030C   26062.52463738 -.00000098  00000+0  56022-4 0  9997
2 62973  50.0012 254.7952 0000697 148.0294 212.0621 13.29337708 51802
HULIANWANG DIGUI-14     
1 62974U 25030D   26062.57481492 -.00000084  00000+0  86905-4 0  9998
2 62974  50.0017 254.4134 0000799 148.6053 211.4867 13.29337546 51815
HULIANWANG DIGUI-15     
1 62975U 25030E   26062.59149809 -.00000091  00000+0  71136-4 0  9992
2 62975  50.0013 254.4849 0000688 155.6118 204.4787 13.29337692 51817
HULIANWANG DIGUI-16     
1 62976U 25030F   26062.56641205 -.00000087  00000+0  80135-4 0  9991
2 62976  50.0034 254.4223 0000800 145.8743 214.2181 13.29338283 51812
